NORAD_CAT_ID,OBJECT_NAME,OBJECT_TYPE,EPOCH,MEAN_MOTION,ECCENTRICITY,INCLINATION,RA_OF_ASC_NODE,ARG_OF_PERICENTER,MEAN_ANOMALY,BSTAR,MEAN_MOTION_DOT,MEAN_MOTION_DDOT,TLE_LINE0,TLE_LINE1,TLE_LINE2,SEMIMAJOR_AXIS,PERIOD,APOGEE,PERIGEE,DECAYED
51742.0,STARLINK-3521,PAYLOAD,2024-05-30 13:14:46,15.08846029,0.0001008,53.2181,348.9169,78.1824,281.9282,9.8082e-05,1.274e-05,0.0,0 STARLINK-3521,1 51742U 22016AE  24151.55192856  .00001274  00000-0  98082-4 0  9999,2 51742  53.2181 348.9169 0001008  78.1824 281.9282 15.08846029126846,6917.862,95.437,540.424,539.03,0.0
51742.0,STARLINK-3521,PAYLOAD,2024-05-30 22:47:05,15.0884991,9.27e-05,53.2178,347.1319,88.6365,271.4733,0.0001236,1.68e-05,0.0,0 STARLINK-3521,1 51742U 22016AE  24151.94936354  .00001680  00000-0  12360-3 0  9996,2 51742  53.2178 347.1319 0000927  88.6365 271.4733 15.08849910125773,6917.85,95.437,540.356,539.074,0.0
51742.0,STARLINK-3521,PAYLOAD,2024-05-31 19:27:06,15.08842752,0.0001,53.2189,343.2653,98.6737,261.4369,4.8795e-05,4.89e-06,0.0,0 STARLINK-3521,1 51742U 22016AE  24152.81048745  .00000489  00000-0  48795-4 0  9999,2 51742  53.2189 343.2653 0001000  98.6737 261.4369 15.08842752127032,6917.872,95.437,540.429,539.045,0.0
51742.0,STARLINK-3521,PAYLOAD,2024-05-31 22:37:52,15.08843792,0.0001029,53.2192,342.6718,91.1633,268.9477,5.4863e-05,5.86e-06,0.0,0 STARLINK-3521,1 51742U 22016AE  24152.94296672  .00000586  00000-0  54863-4 0  9998,2 51742  53.2192 342.6718 0001029  91.1633 268.9477 15.08843792125928,6917.869,95.437,540.446,539.022,0.0
51742.0,STARLINK-3521,PAYLOAD,2024-06-01 19:17:54,15.08831967,0.0001023,53.2182,338.8056,86.3219,273.789,-1.823e-05,-5.78e-06,0.0,0 STARLINK-3521,1 51742U 22016AE  24153.80409761 -.00000578  00000-0 -18230-4 0  9990,2 51742  53.2182 338.8056 0001023  86.3219 273.7890 15.08831967127183,6917.905,95.438,540.478,539.062,0.0
51742.0,STARLINK-3521,PAYLOAD,2024-06-02 04:50:12,15.08840387,0.0001035,53.2189,337.021,83.0245,277.0865,1.138e-05,-1.07e-06,0.0,0 STARLINK-3521,1 51742U 22016AE  24154.20153214 -.00000107  00000-0  11380-4 0  9990,2 51742  53.2189 337.0210 0001035  83.0245 277.0865 15.08840387127241,6917.879,95.438,540.46,539.028,0.0
51742.0,STARLINK-3521,PAYLOAD,2024-06-02 11:11:45,15.08834268,0.0001106,53.2196,335.8357,86.2127,273.8992,2.0027e-05,3.1e-07,0.0,0 STARLINK-3521,1 51742U 22016AE  24154.46649725  .00000031  00000-0  20027-4 0  9998,2 51742  53.2196 335.8357 0001106  86.2127 273.8992 15.08834268126155,6917.898,95.438,540.528,538.998,0.0
51742.0,STARLINK-3521,PAYLOAD,2024-06-03 22:10:14,15.08842009,0.0001087,53.2173,329.2929,90.4414,269.6703,9.4451e-05,1.216e-05,0.0,0 STARLINK-3521,1 51742U 22016AE  24155.92377607  .00001216  00000-0  94451-4 0  9995,2 51742  53.2173 329.2929 0001087  90.4414 269.6703 15.08842009126375,6917.874,95.437,540.491,538.987,0.0
51742.0,STARLINK-3521,PAYLOAD,2024-06-04 04:31:46,15.08849954,0.0001193,53.2194,328.1036,84.3961,275.7167,0.00022909,3.361e-05,0.0,0 STARLINK-3521,1 51742U 22016AE  24156.18872843  .00003361  00000-0  22909-3 0  9997,2 51742  53.2194 328.1036 0001193  84.3961 275.7167 15.08849954127540,6917.85,95.437,540.54,538.89,0.0
51742.0,STARLINK-3521,PAYLOAD,2024-06-04 20:25:38,15.08842388,0.0001072,53.2183,325.1267,88.4613,271.6502,6.3684e-05,7.26e-06,0.0,0 STARLINK-3521,1 51742U 22016AE  24156.85113708  .00000726  00000-0  63684-4 0  9997,2 51742  53.2183 325.1267 0001072  88.4613 271.6502 15.08842388127649,6917.873,95.437,540.48,538.996,0.0
51742.0,STARLINK-3521,PAYLOAD,2024-06-05 04:22:33,15.08861779,0.0002263,53.2192,323.6416,73.953,286.1711,9.8411e-05,1.279e-05,0.0,0 STARLINK-3521,1 51742U 22016AE  24157.18233023  .00001279  00000-0  98411-4 0  9997,2 51742  53.2192 323.6416 0002263  73.9530 286.1711 15.08861779127691,6917.814,95.436,541.244,538.113,0.0
51742.0,STARLINK-3521,PAYLOAD,2024-06-05 20:16:26,15.08837358,0.0001487,53.2169,320.6687,73.346,286.7695,-0.00010948,-2.03e-05,0.0,0 STARLINK-3521,1 51742U 22016AE  24157.84474567 -.00002030  00000-0 -10948-3 0  9996,2 51742  53.2169 320.6687 0001487  73.3460 286.7695 15.08837358127799,6917.888,95.438,540.782,538.725,0.0
51742.0,STARLINK-3521,PAYLOAD,2024-06-06 04:13:20,15.0884893,0.0001258,53.2179,319.1813,75.6003,284.5128,-4.6901e-06,-3.63e-06,0.0,0 STARLINK-3521,1 51742U 22016AE  24158.17593445 -.00000363  00000-0 -46901-5 0  9997,2 51742  53.2179 319.1813 0001258  75.6003 284.5128 15.08848930127849,6917.853,95.437,540.588,538.848,0.0
51742.0,STARLINK-3521,PAYLOAD,2024-06-06 16:56:26,15.08839004,0.0001311,53.2205,316.7996,85.279,274.8352,5.6768e-05,6.16e-06,0.0,0 STARLINK-3521,1 51742U 22016AE  24158.70585996  .00000616  00000-0  56768-4 0  9998,2 51742  53.2205 316.7996 0001311  85.2790 274.8352 15.08839004127926,6917.883,95.438,540.655,538.841,0.0
51742.0,STARLINK-3521,PAYLOAD,2024-06-07 16:47:14,15.08798115,0.000114,53.2193,312.3393,95.686,264.4262,0.00071635,0.00011118,0.0,0 STARLINK-3521,1 51742U 22016AE  24159.69947772  .00011118  00000-0  71635-3 0  9999,2 51742  53.2193 312.3393 0001140  95.6860 264.4262 15.08798115128077,6918.008,95.44,540.662,539.085,0.0
51742.0,STARLINK-3521,PAYLOAD,2024-06-08 19:48:47,15.08835759,0.0001241,53.2207,307.2843,87.1406,272.9728,1.0352e-05,-1.23e-06,0.0,0 STARLINK-3521,1 51742U 22016AE  24160.82554710 -.00000123  00000-0  10352-4 0  9997,2 51742  53.2207 307.2843 0001241  87.1406 272.9728 15.08835759128246,6917.893,95.438,540.617,538.9,0.0
51742.0,STARLINK-3521,PAYLOAD,2024-06-09 10:07:15,15.08837521,0.0001354,53.2203,304.6098,87.8107,272.304,1.1042e-06,-2.7e-06,0.0,0 STARLINK-3521,1 51742U 22016AE  24161.42170656 -.00000270  00000-0  11042-5 0  9998,2 51742  53.2203 304.6098 0001354  87.8107 272.3040 15.08837521127200,6917.888,95.438,540.69,538.816,0.0
51742.0,STARLINK-3521,PAYLOAD,2024-06-09 18:04:11,15.08836661,8.63e-05,53.2164,303.124,68.0328,292.0756,8.861e-05,1.123e-05,0.0,0 STARLINK-3521,1 51742U 22016AE  24161.75290852  .00001123  00000-0  88610-4 0  9996,2 51742  53.2164 303.1240 0000863  68.0328 292.0756 15.08836661127251,6917.891,95.438,540.353,539.159,0.0
51742.0,STARLINK-3521,PAYLOAD,2024-06-10 02:01:05,15.0884971,5.17e-05,53.2167,301.6356,11.0822,349.0181,0.00020122,2.917e-05,0.0,0 STARLINK-3521,1 51742U 22016AE  24162.08409695  .00002917  00000-0  20122-3 0  9995,2 51742  53.2167 301.6356 0000517  11.0822 349.0181 15.08849710128433,6917.851,95.437,540.073,539.358,0.0
51742.0,STARLINK-3521,PAYLOAD,2024-06-10 13:08:49,15.08832409,0.0001152,53.2178,299.5542,98.79,261.3223,4.8223e-05,4.8e-06,0.0,0 STARLINK-3521,1 51742U 22016AE  24162.54779374  .00000480  00000-0  48223-4 0  9996,2 51742  53.2178 299.5542 0001152  98.7900 261.3223 15.08832409128500,6917.904,95.438,540.566,538.972,0.0
51742.0,STARLINK-3521,PAYLOAD,2024-06-10 14:44:12,15.08833191,0.0001303,53.2189,299.2573,104.2393,255.8744,5.2129e-05,5.42e-06,0.0,0 STARLINK-3521,1 51742U 22016AE  24162.61403313  .00000542  00000-0  52129-4 0  9990,2 51742  53.2189 299.2573 0001303 104.2393 255.8744 15.08833191127380,6917.901,95.438,540.668,538.865,0.0
51742.0,STARLINK-3521,PAYLOAD,2024-06-11 01:51:53,15.08843221,0.0001082,53.2184,297.1762,87.7988,272.3128,0.00012558,1.712e-05,0.0,0 STARLINK-3521,1 51742U 22016AE  24163.07770561  .00001712  00000-0  12558-3 0  9994,2 51742  53.2184 297.1762 0001082  87.7988 272.3128 15.08843221128589,6917.871,95.437,540.484,538.987,0.0
51742.0,STARLINK-3521,PAYLOAD,2024-06-11 12:59:36,15.08836253,0.0001244,53.2203,295.0979,92.0421,268.0714,3.8254e-05,3.21e-06,0.0,0 STARLINK-3521,1 51742U 22016AE  24163.54139401  .00000321  00000-0  38254-4 0  9995,2 51742  53.2203 295.0979 0001244  92.0421 268.0714 15.08836253127522,6917.892,95.438,540.617,538.896,0.0
51742.0,STARLINK-3521,PAYLOAD,2024-06-12 01:42:39,15.08861517,0.0001094,53.2176,292.7161,62.802,297.3084,9.2045e-05,1.178e-05,0.0,0 STARLINK-3521,1 51742U 22016AE  24164.07129281  .00001178  00000-0  92045-4 0  9998,2 51742  53.2176 292.7161 0001094  62.8020 297.3084 15.08861517128731,6917.815,95.436,540.436,538.923,0.0
51742.0,STARLINK-3521,PAYLOAD,2024-06-12 12:50:23,15.08825145,0.000147,53.219,290.6363,77.5378,282.5778,3.3387e-05,2.43e-06,0.0,0 STARLINK-3521,1 51742U 22016AE  24164.53499994  .00000243  00000-0  33387-4 0  9996,2 51742  53.2190 290.6363 0001470  77.5378 282.5778 15.08825145128806,6917.926,95.438,540.808,538.774,0.0
51742.0,STARLINK-3521,PAYLOAD,2024-06-12 16:01:09,15.08836684,0.0001067,53.2184,290.0392,64.4047,295.7055,3.5404e-05,2.76e-06,0.0,0 STARLINK-3521,1 51742U 22016AE  24164.66747277  .00000276  00000-0  35404-4 0  9998,2 51742  53.2184 290.0392 0001067  64.4047 295.7055 15.08836684128821,6917.891,95.438,540.494,539.017,0.0
51742.0,STARLINK-3521,PAYLOAD,2024-06-13 14:16:33,15.08840705,0.000115,53.218,285.8785,77.7984,282.3137,0.00010167,1.331e-05,0.0,0 STARLINK-3521,1 51742U 22016AE  24165.59482915  .00001331  00000-0  10167-3 0  9997,2 51742  53.2180 285.8785 0001150  77.7984 282.3137 15.08840705127837,6917.878,95.438,540.539,538.948,0.0
51742.0,STARLINK-3521,PAYLOAD,2024-06-13 15:51:56,15.08846247,0.0001124,53.2179,285.579,65.528,294.5829,7.3862e-05,8.88e-06,0.0,0 STARLINK-3521,1 51742U 22016AE  24165.66106724  .00000888  00000-0  73862-4 0  9994,2 51742  53.2179 285.5790 0001124  65.5280 294.5829 15.08846247127844,6917.861,95.437,540.504,538.949,0.0
51742.0,STARLINK-3521,PAYLOAD,2024-06-14 14:07:20,15.08832044,0.0001006,53.218,281.416,75.1999,284.9104,0.0002167,3.162e-05,0.0,0 STARLINK-3521,1 51742U 22016AE  24166.58843171  .00003162  00000-0  21670-3 0  9997,2 51742  53.2180 281.4160 0001006  75.1999 284.9104 15.08832044129116,6917.905,95.438,540.466,539.074,0.0
51742.0,STARLINK-3521,PAYLOAD,2024-06-14 17:18:06,15.088398,0.0001097,53.2179,280.8209,71.3817,288.7295,8.5581e-05,1.074e-05,0.0,0 STARLINK-3521,1 51742U 22016AE  24166.72091004  .00001074  00000-0  85581-4 0  9995,2 51742  53.2179 280.8209 0001097  71.3817 288.7295 15.08839800128005,6917.881,95.438,540.505,538.987,0.0
